{
  "norad_id": 58364,
  "name": "STARLINK-30904",
  "history": [
    {
      "epoch": "2026-03-28T17:01:56.009856",
      "apogee_km": 552.4304255041525,
      "perigee_km": 545.219458122725,
      "latitude_deg": 35.72559661316693,
      "longitude_deg": 84.52889983984642,
      "semi_major_axis_km": 6926.961941813439,
      "eccentricity": 0.0005205,
      "inclination_deg": 42.9987,
      "raan_deg": 245.9545,
      "arg_perigee_deg": 295.4485,
      "mean_anomaly_deg": 64.5819,
      "mean_motion_rev_day": 15.05873739
    }
  ]
}