{"fetched_at":"2026-03-30T06:02:59Z","count":15439,"tles":[{"name":"STARLINK-30904","line1":"1 58364U 23177P   26087.70967604  .00034204  00000+0  23182-2 0  9998","line2":"2 58364  42.9987 245.9545 0005205 295.4485  64.5819 15.05873739131107","category":"Starlink"}]}